{"type": "FeatureCollection", "features": [ {"type": "Feature", "properties": {"norad_id": 65077, "name": "CREW DRAGON 11", "group": "stations", "lat": 50.45888206653533, "lon": -96.63385258809406, "alt_km": 413.1131048959305, "timestamp": "2025-12-03T04:52:28.438423+00:00", "meta": {"OBJECT_NAME": "CREW DRAGON 11", "OBJECT_ID": "2025-166A", "EPOCH": "2025-12-02T02:12:50.598720", "MEAN_MOTION": 15.49237019, "ECCENTRICITY": 0.00036389, "INCLINATION": 51.6314, "RA_OF_ASC_NODE": 195.1903, "ARG_OF_PERICENTER": 193.8265, "MEAN_ANOMALY": 166.2625, "EPHEMERIS_TYPE": 0, "CLASSIFICATION_TYPE": "U", "NORAD_CAT_ID": 65077, "ELEMENT_SET_NO": 999, "REV_AT_EPOCH": 214, "BSTAR": 0.00017380747, "MEAN_MOTION_DOT": 9.217e-05, "MEAN_MOTION_DDOT": 0}, "tle": {"line1": "1 65077U 25166A   25336.09225230  .00009217  00000+0  17381-3 0  9998", "line2": "2 65077  51.6314 195.1903 0003638 193.8265 166.2625 15.49237019  2145"}}, "geometry": {"type": "Point", "coordinates": [-96.63385258809406, 50.45888206653533]}}, {"type": "Feature", "properties": {"norad_id": 65304, "name": "DRAGON CRS-33", "group": "stations", "lat": 50.45888220901207, "lon": -96.63385159775524, "alt_km": 413.1131048516636, "timestamp": "2025-12-03T04:52:28.438433+00:00", "meta": {"OBJECT_NAME": "DRAGON CRS-33", "OBJECT_ID": "2025-186A", "EPOCH": "2025-12-02T02:12:50.598720", "MEAN_MOTION": 15.49237019, "ECCENTRICITY": 0.00036389, "INCLINATION": 51.6314, "RA_OF_ASC_NODE": 195.1903, "ARG_OF_PERICENTER": 193.8265, "MEAN_ANOMALY": 166.2625, "EPHEMERIS_TYPE": 0, "CLASSIFICATION_TYPE": "U", "NORAD_CAT_ID": 65304, "ELEMENT_SET_NO": 999, "REV_AT_EPOCH": 11, "BSTAR": 0.00017380747, "MEAN_MOTION_DOT": 9.217e-05, "MEAN_MOTION_DDOT": 0}, "tle": {"line1": "1 65304U 25186A   25336.09225230  .00009217  00000+0  17381-3 0  9993", "line2": "2 65304  51.6314 195.1903 0003638 193.8265 166.2625 15.49237019   113"}}, "geometry": {"type": "Point", "coordinates": [-96.63385159775524, 50.45888220901207]}}, {"type": "Feature", "properties": {"norad_id": 65586, "name": "PROGRESS-MS 32", "group": "stations", "lat": 50.45888235148953, "lon": -96.6338506074114, "alt_km": 413.11310480739394, "timestamp": "2025-12-03T04:52:28.438443+00:00", "meta": {"OBJECT_NAME": "PROGRESS-MS 32", "OBJECT_ID": "2025-204A", "EPOCH": "2025-12-02T02:12:50.598720", "MEAN_MOTION": 15.49237019, "ECCENTRICITY": 0.00036389, "INCLINATION": 51.6314, "RA_OF_ASC_NODE": 195.1903, "ARG_OF_PERICENTER": 193.8265, "MEAN_ANOMALY": 166.2625, "EPHEMERIS_TYPE": 0, "CLASSIFICATION_TYPE": "U", "NORAD_CAT_ID": 65586, "ELEMENT_SET_NO": 999, "REV_AT_EPOCH": 27, "BSTAR": 0.00017380747, "MEAN_MOTION_DOT": 9.217e-05, "MEAN_MOTION_DDOT": 0}, "tle": {"line1": "1 65586U 25204A   25336.09225230  .00009217  00000+0  17381-3 0  9996", "line2": "2 65586  51.6314 195.1903 0003638 193.8265 166.2625 15.49237019   272"}}, "geometry": {"type": "Point", "coordinates": [-96.6338506074114, 50.45888235148953]}}, {"type": "Feature", "properties": {"norad_id": 65616, "name": "CYGNUS NG-23", "group": "stations", "lat": 50.4588825937006, "lon": -96.63384892383083, "alt_km": 413.11310473213416, "timestamp": "2025-12-03T04:52:28.438460+00:00", "meta": {"OBJECT_NAME": "CYGNUS NG-23", "OBJECT_ID": "2025-208A", "EPOCH": "2025-12-02T02:12:50.598720", "MEAN_MOTION": 15.49237019, "ECCENTRICITY": 0.00036389, "INCLINATION": 51.6314, "RA_OF_ASC_NODE": 195.1903, "ARG_OF_PERICENTER": 193.8265, "MEAN_ANOMALY": 166.2625, "EPHEMERIS_TYPE": 0, "CLASSIFICATION_TYPE": "U", "NORAD_CAT_ID": 65616, "ELEMENT_SET_NO": 999, "REV_AT_EPOCH": 22, "BSTAR": 0.00017380747, "MEAN_MOTION_DOT": 9.217e-05, "MEAN_MOTION_DDOT": 0}, "tle": {"line1": "1 65616U 25208A   25336.09225230  .00009217  00000+0  17381-3 0  9994", "line2": "2 65616  51.6314 195.1903 0003638 193.8265 166.2625 15.49237019   221"}}, "geometry": {"type": "Point", "coordinates": [-96.63384892383083, 50.4588825937006]}}, {"type": "Feature", "properties": {"norad_id": 65729, "name": "DRAGONFLY", "group": "stations", "lat": 47.40261084540234, "lon": -116.01454057072705, "alt_km": 361.2889635740703, "timestamp": "2025-12-03T04:52:28.438470+00:00", "meta": {"OBJECT_NAME": "DRAGONFLY", "OBJECT_ID": "1998-067XH", "EPOCH": "2025-12-02T19:24:02.227104", "MEAN_MOTION": 15.68060646, "ECCENTRICITY": 0.0006468, "INCLINATION": 51.6253, "RA_OF_ASC_NODE": 186.4705, "ARG_OF_PERICENTER": 216.4679, "MEAN_ANOMALY": 143.5877, "EPHEMERIS_TYPE": 0, "CLASSIFICATION_TYPE": "U", "NORAD_CAT_ID": 65729, "ELEMENT_SET_NO": 999, "REV_AT_EPOCH": 1160, "BSTAR": 0.0012965, "MEAN_MOTION_DOT": 0.00149213, "MEAN_MOTION_DDOT": 0}, "tle": {"line1": "1 65729U 98067XH  25336.80835911  .00149213  00000+0  12965-2 0  9997", "line2": "2 65729  51.6253 186.4705 0006468 216.4679 143.5877 15.68060646 11608"}}, "geometry": {"type": "Point", "coordinates": [-116.01454057072705, 47.40261084540234]}}, {"type": "Feature", "properties": {"norad_id": 65730, "name": "1998-067XJ", "group": "stations", "lat": 44.44017346505796, "lon": -130.5920113913409, "alt_km": 194.65119977423183, "timestamp": "2025-12-03T04:52:28.438481+00:00", "meta": {"OBJECT_NAME": "1998-067XJ", "OBJECT_ID": "1998-067XJ", "EPOCH": "2025-12-02T19:46:01.269120", "MEAN_MOTION": 16.23931094, "ECCENTRICITY": 0.0010115, "INCLINATION": 51.6061, "RA_OF_ASC_NODE": 180.4655, "ARG_OF_PERICENTER": 256.3912, "MEAN_ANOMALY": 103.5981, "EPHEMERIS_TYPE": 0, "CLASSIFICATION_TYPE": "U", "NORAD_CAT_ID": 65730, "ELEMENT_SET_NO": 999, "REV_AT_EPOCH": 1168, "BSTAR": 0.0022859, "MEAN_MOTION_DOT": 0.06330363, "MEAN_MOTION_DDOT": 1.1931e-05}, "tle": {"line1": "1 65730U 98067XJ  25336.82362580  .06330363  11931-4  22859-2 0  9995", "line2": "2 65730  51.6061 180.4655 0010115 256.3912 103.5981 16.23931094 11688"}}, "geometry": {"type": "Point", "coordinates": [-130.5920113913409, 44.44017346505796]}}, {"type": "Feature", "properties": {"norad_id": 65731, "name": "1998-067XK", "group": "stations", "lat": -50.441272228066325, "lon": 111.95599067412073, "alt_km": 382.30712891267376, "timestamp": "2025-12-03T04:52:28.438492+00:00", "meta": {"OBJECT_NAME": "1998-067XK", "OBJECT_ID": "1998-067XK", "EPOCH": "2025-12-02T20:00:36.101088", "MEAN_MOTION": 15.63382318, "ECCENTRICITY": 0.0005863, "INCLINATION": 51.6285, "RA_OF_ASC_NODE": 187.4006, "ARG_OF_PERICENTER": 188.3266, "MEAN_ANOMALY": 171.7632, "EPHEMERIS_TYPE": 0, "CLASSIFICATION_TYPE": "U", "NORAD_CAT_ID": 65731, "ELEMENT_SET_NO": 999, "REV_AT_EPOCH": 1159, "BSTAR": 0.00098553, "MEAN_MOTION_DOT": 0.00093205, "MEAN_MOTION_DDOT": 0}, "tle": {"line1": "1 65731U 98067XK  25336.83375117  .00093205  00000+0  98553-3 0  9997", "line2": "2 65731  51.6285 187.4006 0005863 188.3266 171.7632 15.63382318 11596"}}, "geometry": {"type": "Point", "coordinates": [111.95599067412073, -50.441272228066325]}}, {"type": "Feature", "properties": {"norad_id": 65732, "name": "RSP-03", "group": "stations", "lat": 11.360222858229294, "lon": -4.146418237257501, "alt_km": 366.35035726690603, "timestamp": "2025-12-03T04:52:28.438502+00:00", "meta": {"OBJECT_NAME": "RSP-03", "OBJECT_ID": "1998-067XL", "EPOCH": "2025-12-02T20:30:42.166944", "MEAN_MOTION": 15.65600923, "ECCENTRICITY": 0.0006827, "INCLINATION": 51.6273, "RA_OF_ASC_NODE": 186.7826, "ARG_OF_PERICENTER": 191.7215, "MEAN_ANOMALY": 168.3622, "EPHEMERIS_TYPE": 0, "CLASSIFICATION_TYPE": "U", "NORAD_CAT_ID": 65732, "ELEMENT_SET_NO": 999, "REV_AT_EPOCH": 1161, "BSTAR": 0.0011616, "MEAN_MOTION_DOT": 0.0012054, "MEAN_MOTION_DDOT": 0}, "tle": {"line1": "1 65732U 98067XL  25336.85465471  .00120540  00000+0  11616-2 0  9990", "line2": "2 65732  51.6273 186.7826 0006827 191.7215 168.3622 15.65600923 11610"}}, "geometry": {"type": "Point", "coordinates": [-4.146418237257501, 11.360222858229294]}}, {"type": "Feature", "properties": {"norad_id": 65733, "name": "GHS-01", "group": "stations", "lat": -50.58576157916494, "lon": 78.68233664817386, "alt_km": 359.5210773045337, "timestamp": "2025-12-03T04:52:28.438513+00:00", "meta": {"OBJECT_NAME": "GHS-01", "OBJECT_ID": "1998-067XM", "EPOCH": "2025-12-02T20:07:58.918368", "MEAN_MOTION": 15.70056093, "ECCENTRICITY": 0.0006994, "INCLINATION": 51.628, "RA_OF_ASC_NODE": 185.9293, "ARG_OF_PERICENTER": 215.3541, "MEAN_ANOMALY": 144.6993, "EPHEMERIS_TYPE": 0, "CLASSIFICATION_TYPE": "U", "NORAD_CAT_ID": 65733, "ELEMENT_SET_NO": 999, "REV_AT_EPOCH": 1162, "BSTAR": 0.0014391, "MEAN_MOTION_DOT": 0.00180652, "MEAN_MOTION_DDOT": 0}, "tle": {"line1": "1 65733U 98067XM  25336.83887637  .00180652  00000+0  14391-2 0  9994", "line2": "2 65733  51.6280 185.9293 0006994 215.3541 144.6993 15.70056093 11626"}}, "geometry": {"type": "Point", "coordinates": [78.68233664817386, -50.58576157916494]}}, {"type": "Feature", "properties": {"norad_id": 65941, "name": "YOTSUBA-KULOVER", "group": "stations", "lat": -45.84697262193369, "lon": 62.5494806868506, "alt_km": 398.23914612083354, "timestamp": "2025-12-03T04:52:28.438523+00:00", "meta": {"OBJECT_NAME": "YOTSUBA-KULOVER", "OBJECT_ID": "1998-067XN", "EPOCH": "2025-12-02T15:30:17.265024", "MEAN_MOTION": 15.57709356, "ECCENTRICITY": 0.00021398, "INCLINATION": 51.6284, "RA_OF_ASC_NODE": 190.644, "ARG_OF_PERICENTER": 164.2097, "MEAN_ANOMALY": 195.8962, "EPHEMERIS_TYPE": 0, "CLASSIFICATION_TYPE": "U", "NORAD_CAT_ID": 65941, "ELEMENT_SET_NO": 999, "REV_AT_EPOCH": 828, "BSTAR": 0.00091621888, "MEAN_MOTION_DOT": 0.00069349, "MEAN_MOTION_DDOT": 0}, "tle": {"line1": "1 65941U 98067XN  25336.64603316  .00069349  00000+0  91622-3 0  9996", "line2": "2 65941  51.6284 190.6440 0002139 164.2097 195.8962 15.57709356  8287"}}, "geometry": {"type": "Point", "coordinates": [62.5494806868506, -45.84697262193369]}}]}